CTC2_L_00260016-03
1 10062U 22215YU  26075.70043981  .00000000  00000+0  00000-0 0  9992
2 10062  95.0000 180.0000 0000000   0.0000   0.0000 14.06899812    13
CTC2_L_00260016-04
1 10063U 22642HG  26075.70043981  .00000000  00000+0  00000-0 0  9997
2 10063  95.0000 180.0000 0000000   0.0000  90.0000 14.06899812    13
CTC2_L_00260017-01
1 10064U 24996IM  26075.70043981  .00000000  00000+0  00000-0 0  9992
2 10064  95.0000 192.0000 0000000   0.0000 192.0000 14.06899812    10
CTC2_L_00260017-02
1 10065U 26260BF  26075.70043981  .00000000  00000+0  00000-0 0  9999
2 10065  95.0000 192.0000 0000000   0.0000 282.0000 14.06899812    11
CTC2_L_00260017-03
1 10066U 26447BT  26075.70043981  .00000000  00000+0  00000-0 0  9997
2 10066  95.0000 192.0000 0000000   0.0000  12.0000 14.06899812    13
CTC2_L_00260017-04
1 10067U 26839YG  26075.70043981  .00000000  00000+0  00000-0 0  9993
2 10067  95.0000 192.0000 0000000   0.0000 102.0000 14.06899812    14
CTC2_L_00260018-01
1 10068U 22620DH  26075.70043981  .00000000  00000+0  00000-0 0  9998
2 10068  95.0000 204.0000 0000000   0.0000 204.0000 14.06899812    12
CTC2_L_00260018-02
1 10069U 23495DX  26075.70043981  .00000000  00000+0  00000-0 0  9990
2 10069  95.0000 204.0000 0000000   0.0000 294.0000 14.06899812    12
CTC2_L_00260018-03
1 10070U 25822PG  26075.70043981  .00000000  00000+0  00000-0 0  9998
2 10070  95.0000 204.0000 0000000   0.0000  24.0000 14.06899812    15
CTC2_L_00260018-04
1 10071U 22770FD  26075.70043981  .00000000  00000+0  00000-0 0  9998
2 10071  95.0000 204.0000 0000000   0.0000 114.0000 14.06899812    16
CTC2_L_00260019-01
1 10072U 23838QR  26075.70043981  .00000000  00000+0  00000-0 0  9995
2 10072  95.0000 216.0000 0000000   0.0000 216.0000 14.06899812    13
CTC2_L_00260019-02
1 10073U 24674OS  26075.70043981  .00000000  00000+0  00000-0 0  9995
2 10073  95.0000 216.0000 0000000   0.0000 306.0000 14.06899812    14
CTC2_L_00260019-03
1 10074U 25652LQ  26075.70043981  .00000000  00000+0  00000-0 0  9993
2 10074  95.0000 216.0000 0000000   0.0000  36.0000 14.06899812    15
CTC2_L_00260019-04
1 10075U 26673QI  26075.70043981  .00000000  00000+0  00000-0 0  9998
2 10075  95.0000 216.0000 0000000   0.0000 126.0000 14.06899812    16
CTC2_L_00260020-01
1 10076U 23078XC  26075.70043981  .00000000  00000+0  00000-0 0  9995
2 10076  95.0000 228.0000 0000000   0.0000 228.0000 14.06899812    13
CTC2_L_00260020-02
1 10077U 22907P   26075.70043981  .00000000  00000+0  00000-0 0  9996
2 10077  95.0000 228.0000 0000000   0.0000 318.0000 14.06899812    14
CTC2_L_00260020-03
1 10078U 26971GR  26075.70043981  .00000000  00000+0  00000-0 0  9992
2 10078  95.0000 228.0000 0000000   0.0000  48.0000 14.06899812    15
CTC2_L_00260020-04
1 10079U 23984OE  26075.70043981  .00000000  00000+0  00000-0 0  9994
2 10079  95.0000 228.0000 0000000   0.0000 138.0000 14.06899812    16
CTC2_L_00260021-01
1 10080U 23680SE  26075.70043981  .00000000  00000+0  00000-0 0  9999
2 10080  95.0000 240.0000 0000000   0.0000 240.0000 14.06899812    16
CTC2_L_00260021-02
1 10081U 22029BR  26075.70043981  .00000000  00000+0  00000-0 0  9996
2 10081  95.0000 240.0000 0000000   0.0000 330.0000 14.06899812    17
CTC2_L_00260021-03
1 10082U 26232DZ  26075.70043981  .00000000  00000+0  00000-0 0  9997
2 10082  95.0000 240.0000 0000000   0.0000  60.0000 14.06899812    18
CTC2_L_00260021-04
1 10083U 23827EE  26075.70043981  .00000000  00000+0  00000-0 0  9995
2 10083  95.0000 240.0000 0000000   0.0000 150.0000 14.06899812    19
CTC2_L_00260022-01
1 10084U 23262GL  26075.70043981  .00000000  00000+0  00000-0 0  9999
2 10084  95.0000 252.0000 0000000   0.0000 252.0000 14.06899812    16
CTC2_L_00260022-02
1 10085U 22812HN  26075.70043981  .00000000  00000+0  00000-0 0  9990
2 10085  95.0000 252.0000 0000000   0.0000 342.0000 14.06899812    17
CTC2_L_00260022-03
1 10086U 25004AM  26075.70043981  .00000000  00000+0  00000-0 0  9997
2 10086  95.0000 252.0000 0000000   0.0000  72.0000 14.06899812    18
CTC2_L_00260022-04
1 10087U 25900CM  26075.70043981  .00000000  00000+0  00000-0 0  9993
2 10087  95.0000 252.0000 0000000   0.0000 162.0000 14.06899812    19
CTC2_L_00260023-01
1 10088U 24041A   26075.70043981  .00000000  00000+0  00000-0 0  9999
2 10088  95.0000 264.0000 0000000   0.0000 264.0000 14.06899812    16
CTC2_L_00260023-02
1 10089U 23757YO  26075.70043981  .00000000  00000+0  00000-0 0  9993
2 10089  95.0000 264.0000 0000000   0.0000 354.0000 14.06899812    17
CTC2_L_00260023-03
1 10090U 25530PI  26075.70043981  .00000000  00000+0  00000-0 0  9996
2 10090  95.0000 264.0000 0000000   0.0000  84.0000 14.06899812    19
CTC2_L_00260023-04
1 10091U 26415EZ  26075.70043981  .00000000  00000+0  00000-0 0  9990
2 10091  95.0000 264.0000 0000000   0.0000 174.0000 14.06899812    10
CTC2_L_00260024-01
1 10092U 25755VU  26075.70043981  .00000000  00000+0  00000-0 0  9997
2 10092  95.0000 276.0000 0000000   0.0000 276.0000 14.06899812    17
CTC2_L_00260024-02
1 10093U 25113WX  26075.70043981  .00000000  00000+0  00000-0 0  9996
2 10093  95.0000 276.0000 0000000   0.0000   6.0000 14.06899812    19
CTC2_L_00260024-03
1 10094U 26318MM  26075.70043981  .00000000  00000+0  00000-0 0  9995
2 10094  95.0000 276.0000 0000000   0.0000  96.0000 14.06899812    19
CTC2_L_00260024-04
1 10095U 23312AM  26075.70043981  .00000000  00000+0  00000-0 0  9997
2 10095  95.0000 276.0000 0000000   0.0000 186.0000 14.06899812    10
CTC2_L_00260025-01
1 10096U 25064LJ  26075.70043981  .00000000  00000+0  00000-0 0  9994
2 10096  95.0000 288.0000 0000000   0.0000 288.0000 14.06899812    17
CTC2_L_00260025-02
1 10097U 23694GH  26075.70043981  .00000000  00000+0  00000-0 0  9992
2 10097  95.0000 288.0000 0000000   0.0000  18.0000 14.06899812    19
CTC2_L_00260025-03
1 10098U 26101DF  26075.70043981  .00000000  00000+0  00000-0 0  9999
2 10098  95.0000 288.0000 0000000   0.0000 108.0000 14.06899812    10
CTC2_L_00260025-04
1 10099U 23955OU  26075.70043981  .00000000  00000+0  00000-0 0  9994
2 10099  95.0000 288.0000 0000000   0.0000 198.0000 14.06899812    10
CTC2_L_00260026-01
1 10100U 25226BV  26075.70043981  .00000000  00000+0  00000-0 0  9990
2 10100  95.0000 300.0000 0000000   0.0000 300.0000 14.06899812    13
CTC2_L_00260026-02
1 10101U 23007FN  26075.70043981  .00000000  00000+0  00000-0 0  9996
2 10101  95.0000 300.0000 0000000   0.0000  30.0000 14.06899812    14
CTC2_L_00260026-03
1 10102U 25303AJ  26075.70043981  .00000000  00000+0  00000-0 0  9998
2 10102  95.0000 300.0000 0000000   0.0000 120.0000 14.06899812    15
CTC2_L_00260026-04
1 10103U 26075ZA  26075.70043981  .00000000  00000+0  00000-0 0  9996
2 10103  95.0000 300.0000 0000000   0.0000 210.0000 14.06899812    16
CTC2_L_00260027-01
1 10104U 23099SA  26075.70043981  .00000000  00000+0  00000-0 0  9990
2 10104  95.0000 312.0000 0000000   0.0000 312.0000 14.06899812    13
CTC2_L_00260027-02
1 10105U 25042MZ  26075.70043981  .00000000  00000+0  00000-0 0  9991
2 10105  95.0000 312.0000 0000000   0.0000  42.0000 14.06899812    14
CTC2_L_00260027-03
1 10106U 23381UV  26075.70043981  .00000000  00000+0  00000-0 0  9996
2 10106  95.0000 312.0000 0000000   0.0000 132.0000 14.06899812    15
CTC2_L_00260027-04
1 10107U 23424IV  26075.70043981  .00000000  00000+0  00000-0 0  9995
2 10107  95.0000 312.0000 0000000   0.0000 222.0000 14.06899812    16
CTC2_L_00260028-01
1 10108U 22929EB  26075.70043981  .00000000  00000+0  00000-0 0  9995
2 10108  95.0000 324.0000 0000000   0.0000 324.0000 14.06899812    13
CTC2_L_00260028-02
1 10109U 22400BN  26075.70043981  .00000000  00000+0  00000-0 0  9990
2 10109  95.0000 324.0000 0000000   0.0000  54.0000 14.06899812    14
CTC2_L_00260028-03
1 10110U 25203KD  26075.70043981  .00000000  00000+0  00000-0 0  9996
2 10110  95.0000 324.0000 0000000   0.0000 144.0000 14.06899812    16
CTC2_L_00260028-04
1 10111U 26025CW  26075.70043981  .00000000  00000+0  00000-0 0  9990
2 10111  95.0000 324.0000 0000000   0.0000 234.0000 14.06899812    17
CTC2_L_00260029-01
1 10112U 26351DT  26075.70043981  .00000000  00000+0  00000-0 0  9993
2 10112  95.0000 336.0000 0000000   0.0000 336.0000 14.06899812    14
CTC2_L_00260029-02
1 10113U 23367IG  26075.70043981  .00000000  00000+0  00000-0 0  9998
2 10113  95.0000 336.0000 0000000   0.0000  66.0000 14.06899812    15
CTC2_L_00260029-03
1 10114U 24190ON  26075.70043981  .00000000  00000+0  00000-0 0  9994
2 10114  95.0000 336.0000 0000000   0.0000 156.0000 14.06899812    16
CTC2_L_00260029-04
1 10115U 22905AZ  26075.70043981  .00000000  00000+0  00000-0 0  9997
2 10115  95.0000 336.0000 0000000   0.0000 246.0000 14.06899812    17
CTC2_L_00260030-01
1 10116U 25688BX  26075.70043981  .00000000  00000+0  00000-0 0  9999
2 10116  95.0000 348.0000 0000000   0.0000 348.0000 14.06899812    14
CTC2_L_00260030-02
1 10117U 22288ID  26075.70043981  .00000000  00000+0  00000-0 0  9993
2 10117  95.0000 348.0000 0000000   0.0000  78.0000 14.06899812    15
CTC2_L_00260030-03
1 10118U 25319BP  26075.70043981  .00000000  00000+0  00000-0 0  9992
2 10118  95.0000 348.0000 0000000   0.0000 168.0000 14.06899812    16
CTC2_L_00260030-04
1 10119U 26049YV  26075.70043981  .00000000  00000+0  00000-0 0  9994
2 10119  95.0000 348.0000 0000000   0.0000 258.0000 14.06899812    17
